ONEWEB-0144             
1 47290U 20100AJ  25170.09663454 -.00000060  00000+0 -20141-3 0  9995
2 47290  87.8881  62.8573 0002149  75.8321 284.3046 13.12440552216943
ONEWEB-0145             
1 47291U 20100AK  25169.68625482  .00000326  00000+0  87209-3 0  9999
2 47291  87.8883  62.9648 0001996  78.5682 281.5670 13.12444490217082
ONEWEB-0146             
1 47292U 20100AL  25170.44538402  .00000213  00000+0  55616-3 0  9993
2 47292  87.8882  62.8000 0001570  85.4643 274.6665 13.12442966217099
ONEWEB-0147             
1 47293U 20100AM  25170.10636394 -.00000316  00000+0 -91318-3 0  9991
2 47293  87.8880  62.8478 0002092  84.8291 275.3076 13.12441628216940
ONEWEB-0115             
1 48042U 21025A   25170.11329513 -.00000194  00000+0 -56607-3 0  9990
2 48042  87.8961  32.3628 0001752  83.9364 276.1965 13.13469668205944
ONEWEB-0152             
1 48043U 21025B   25169.66977075  .00000147  00000+0  36695-3 0  9992
2 48043  87.8963  32.4641 0001747  87.4641 272.6688 13.13469738205833
ONEWEB-0153             
1 48044U 21025C   25169.64776269 -.00000285  00000+0 -81562-3 0  9991
2 48044  87.8970  32.4661 0001842  82.3659 277.7680 13.13468931205824
ONEWEB-0154             
1 48045U 21025D   25169.87291653 -.00000231  00000+0 -66731-3 0  9998
2 48045  87.8968  32.4214 0001838  85.3733 274.7606 13.13468939205819
